[{"OBJECT_NAME":"ONEWEB-0705","OBJECT_ID":"2024-188S","EPOCH":"2026-03-09T21:15:53.729856","MEAN_MOTION":13.10370286,"ECCENTRICITY":0.00025037,"INCLINATION":87.8779,"RA_OF_ASC_NODE":56.0235,"ARG_OF_PERICENTER":61.7233,"MEAN_ANOMALY":298.4147,"EPHEMERIS_TYPE":0,"CLASSIFICATION_TYPE":"U","NORAD_CAT_ID":61610,"ELEMENT_SET_NO":999,"REV_AT_EPOCH":6245,"BSTAR":0.00096182048,"MEAN_MOTION_DOT":3.48e-6,"MEAN_MOTION_DDOT":0},{"OBJECT_NAME":"FENGYUN 1C DEB","OBJECT_ID":"1999-025BZT","EPOCH":"2026-03-09T10:24:49.923360","MEAN_MOTION":13.63720109,"ECCENTRICITY":0.03439376,"INCLINATION":98.4272,"RA_OF_ASC_NODE":249.1017,"ARG_OF_PERICENTER":236.3334,"MEAN_ANOMALY":120.4572,"EPHEMERIS_TYPE":0,"CLASSIFICATION_TYPE":"U","NORAD_CAT_ID":31613,"ELEMENT_SET_NO":999,"REV_AT_EPOCH":92943,"BSTAR":0.0019080045,"MEAN_MOTION_DOT":2.219e-5,"MEAN_MOTION_DDOT":0}]
